{
  "type": "FeatureCollection",
  "features": [
    {
      "type": "Feature",
      "properties": {
        "norad_id": 38857,
        "name": "GSAT0103 (GALILEO-FM3)",
        "group": "gnss",
        "lat": 3.1163397987198342,
        "lon": 108.7115172609922,
        "alt_km": 23222.80360089651,
        "timestamp": "2025-12-15T07:02:37.860917+00:00",
        "meta_object_name": "GSAT0103 (GALILEO-FM3)",
        "meta_object_id": "2012-055A",
        "meta_epoch": "2025-12-13T12:39:44.093088",
        "meta_mean_motion": 1.70473367,
        "meta_eccentricity": 0.00026827,
        "meta_inclination": 55.6929,
        "meta_ra_of_asc_node": 106.6448,
        "meta_arg_of_pericenter": 268.8486,
        "meta_mean_anomaly": 91.0883,
        "meta_ephemeris_type": 0,
        "meta_classification_type": "U",
        "meta_norad_cat_id": 38857,
        "meta_element_set_no": 999,
        "meta_rev_at_epoch": 8184,
        "meta_bstar": 0,
        "meta_mean_motion_dot": 1e-08,
        "meta_mean_motion_ddot": 0,
        "tle_line1": "1 38857U 12055A   25347.52759367  .00000001  00000+0  00000+0 0  9998",
        "tle_line2": "2 38857  55.6929 106.6448 0002682 268.8486  91.0883  1.70473367 81846"
      },
      "geometry": {
        "type": "Point",
        "coordinates": [
          108.7115172609922,
          3.1163397987198342
        ]
      }
    },
    {
      "type": "Feature",
      "properties": {
        "norad_id": 38953,
        "name": "BEIDOU-2 G6 (C02)",
        "group": "gnss",
        "lat": -1.2604014109241901,
        "lon": -86.28703645804318,
        "alt_km": 35788.25668893751,
        "timestamp": "2025-12-15T07:02:37.860931+00:00",
        "meta_object_name": "BEIDOU-2 G6 (C02)",
        "meta_object_id": "2012-059A",
        "meta_epoch": "2025-12-14T20:39:57.055392",
        "meta_mean_motion": 1.00269597,
        "meta_eccentricity": 0.00079583,
        "meta_inclination": 3.9549,
        "meta_ra_of_asc_node": 75.4859,
        "meta_arg_of_pericenter": 290.4887,
        "meta_mean_anomaly": 111.7816,
        "meta_ephemeris_type": 0,
        "meta_classification_type": "U",
        "meta_norad_cat_id": 38953,
        "meta_element_set_no": 999,
        "meta_rev_at_epoch": 4806,
        "meta_bstar": 0,
        "meta_mean_motion_dot": -1.57e-06,
        "meta_mean_motion_ddot": 0,
        "tle_line1": "1 38953U 12059A   25348.86107703 -.00000157  00000+0  00000+0 0  9991",
        "tle_line2": "2 38953   3.9549  75.4859 0007958 290.4887 111.7816  1.00269597 48067"
      },
      "geometry": {
        "type": "Point",
        "coordinates": [
          -86.28703645804318,
          -1.2604014109241901
        ]
      }
    },
    {
      "type": "Feature",
      "properties": {
        "norad_id": 38977,
        "name": "LUCH 5B (SDCM/PRN 125)",
        "group": "gnss",
        "lat": 8.564676406931145,
        "lon": 173.8489751762473,
        "alt_km": 35775.88806845263,
        "timestamp": "2025-12-15T07:02:37.860943+00:00",
        "meta_object_name": "LUCH 5B (SDCM/PRN 125)",
        "meta_object_id": "2012-061A",
        "meta_epoch": "2025-12-14T21:54:12.441600",
        "meta_mean_motion": 1.0027242,
        "meta_eccentricity": 0.00069033,
        "meta_inclination": 10.0861,
        "meta_ra_of_asc_node": 51.6861,
        "meta_arg_of_pericenter": 193.8782,
        "meta_mean_anomaly": 150.4751,
        "meta_ephemeris_type": 0,
        "meta_classification_type": "U",
        "meta_norad_cat_id": 38977,
        "meta_element_set_no": 999,
        "meta_rev_at_epoch": 4775,
        "meta_bstar": 0,
        "meta_mean_motion_dot": -1.25e-06,
        "meta_mean_motion_ddot": 0,
        "tle_line1": "1 38977U 12061A   25348.91264400 -.00000125  00000+0  00000+0 0  9999",
        "tle_line2": "2 38977  10.0861  51.6861 0006903 193.8782 150.4751  1.00272420 47759"
      },
      "geometry": {
        "type": "Point",
        "coordinates": [
          173.8489751762473,
          8.564676406931145
        ]
      }
    },
    {
      "type": "Feature",
      "properties": {
        "norad_id": 39155,
        "name": "COSMOS 2485 (747)",
        "group": "gnss",
        "lat": -61.561825805758225,
        "lon": -42.22742724065609,
        "alt_km": 19079.61939115439,
        "timestamp": "2025-12-15T07:02:37.860955+00:00",
        "meta_object_name": "COSMOS 2485 (747)",
        "meta_object_id": "2013-019A",
        "meta_epoch": "2025-12-13T13:15:58.678272",
        "meta_mean_motion": 2.13102947,
        "meta_eccentricity": 0.00246467,
        "meta_inclination": 65.3142,
        "meta_ra_of_asc_node": 79.8396,
        "meta_arg_of_pericenter": 229.7128,
        "meta_mean_anomaly": 130.0848,
        "meta_ephemeris_type": 0,
        "meta_classification_type": "U",
        "meta_norad_cat_id": 39155,
        "meta_element_set_no": 999,
        "meta_rev_at_epoch": 9832,
        "meta_bstar": 0,
        "meta_mean_motion_dot": -4.8e-07,
        "meta_mean_motion_ddot": 0,
        "tle_line1": "1 39155U 13019A   25347.55276248 -.00000048  00000+0  00000+0 0  9998",
        "tle_line2": "2 39155  65.3142  79.8396 0024646 229.7128 130.0848  2.13102947 98326"
      },
      "geometry": {
        "type": "Point",
        "coordinates": [
          -42.22742724065609,
          -61.561825805758225
        ]
      }
    },
    {
      "type": "Feature",
      "properties": {
        "norad_id": 39166,
        "name": "GPS BIIF-4  (PRN 27)",
        "group": "gnss",
        "lat": 46.79307460943165,
        "lon": -34.55510067636265,
        "alt_km": 19823.939987239304,
        "timestamp": "2025-12-15T07:02:37.860966+00:00",
        "meta_object_name": "GPS BIIF-4  (PRN 27)",
        "meta_object_id": "2013-023A",
        "meta_epoch": "2025-12-14T05:03:38.216736",
        "meta_mean_motion": 2.0056471,
        "meta_eccentricity": 0.01375063,
        "meta_inclination": 54.6512,
        "meta_ra_of_asc_node": 276.5088,
        "meta_arg_of_pericenter": 48.2653,
        "meta_mean_anomaly": 312.9132,
        "meta_ephemeris_type": 0,
        "meta_classification_type": "U",
        "meta_norad_cat_id": 39166,
        "meta_element_set_no": 999,
        "meta_rev_at_epoch": 9217,
        "meta_bstar": 0,
        "meta_mean_motion_dot": -7.4e-07,
        "meta_mean_motion_ddot": 0,
        "tle_line1": "1 39166U 13023A   25348.21085899 -.00000074  00000+0  00000+0 0  9998",
        "tle_line2": "2 39166  54.6512 276.5088 0137506  48.2653 312.9132  2.00564710 92171"
      },
      "geometry": {
        "type": "Point",
        "coordinates": [
          -34.55510067636265,
          46.79307460943165
        ]
      }
    },
    {
      "type": "Feature",
      "properties": {
        "norad_id": 39199,
        "name": "IRNSS-1A",
        "group": "gnss",
        "lat": 0.6741317322926547,
        "lon": -114.43742238153602,
        "alt_km": 35692.38066679024,
        "timestamp": "2025-12-15T07:02:37.860980+00:00",
        "meta_object_name": "IRNSS-1A",
        "meta_object_id": "2013-034A",
        "meta_epoch": "2025-12-02T19:49:26.431104",
        "meta_mean_motion": 1.00279053,
        "meta_eccentricity": 0.00216608,
        "meta_inclination": 35.2852,
        "meta_ra_of_asc_node": 66.6964,
        "meta_arg_of_pericenter": 185.4059,
        "meta_mean_anomaly": 172.3398,
        "meta_ephemeris_type": 0,
        "meta_classification_type": "U",
        "meta_norad_cat_id": 39199,
        "meta_element_set_no": 999,
        "meta_rev_at_epoch": 4539,
        "meta_bstar": 0,
        "meta_mean_motion_dot": 6.5e-07,
        "meta_mean_motion_ddot": 0,
        "tle_line1": "1 39199U 13034A   25336.82600036  .00000065  00000+0  00000+0 0  9995",
        "tle_line2": "2 39199  35.2852  66.6964 0021660 185.4059 172.3398  1.00279053 45393"
      },
      "geometry": {
        "type": "Point",
        "coordinates": [
          -114.43742238153602,
          0.6741317322926547
        ]
      }
    },
    {
      "type": "Feature",
      "properties": {
        "norad_id": 39533,
        "name": "GPS BIIF-5  (PRN 30)",
        "group": "gnss",
        "lat": 46.944638638095256,
        "lon": -151.09652864924988,
        "alt_km": 20374.85690094354,
        "timestamp": "2025-12-15T07:02:37.860993+00:00",
        "meta_object_name": "GPS BIIF-5  (PRN 30)",
        "meta_object_id": "2014-008A",
        "meta_epoch": "2025-12-14T16:52:49.926432",
        "meta_mean_motion": 2.00574571,
        "meta_eccentricity": 0.00792742,
        "meta_inclination": 53.6315,
        "meta_ra_of_asc_node": 156.8445,
        "meta_arg_of_pericenter": 226.5365,
        "meta_mean_anomaly": 132.8141,
        "meta_ephemeris_type": 0,
        "meta_classification_type": "U",
        "meta_norad_cat_id": 39533,
        "meta_element_set_no": 999,
        "meta_rev_at_epoch": 8598,
        "meta_bstar": 0,
        "meta_mean_motion_dot": 9.6e-07,
        "meta_mean_motion_ddot": 0,
        "tle_line1": "1 39533U 14008A   25348.70335563  .00000096  00000+0  00000+0 0  9993",
        "tle_line2": "2 39533  53.6315 156.8445 0079274 226.5365 132.8141  2.00574571 85980"
      },
      "geometry": {
        "type": "Point",
        "coordinates": [
          -151.09652864924988,
          46.944638638095256
        ]
      }
    }
  ]
}